[{"OBJECT_NAME":"STARLINK-35455","OBJECT_ID":"2025-240G","EPOCH":"2026-03-09T06:39:12.012768","MEAN_MOTION":15.30198458,"ECCENTRICITY":0.00012783,"INCLINATION":53.1588,"RA_OF_ASC_NODE":64.8501,"ARG_OF_PERICENTER":91.8307,"MEAN_ANOMALY":268.284,"EPHEMERIS_TYPE":0,"CLASSIFICATION_TYPE":"U","NORAD_CAT_ID":66152,"ELEMENT_SET_NO":999,"REV_AT_EPOCH":2192,"BSTAR":0.00089014376,"MEAN_MOTION_DOT":0.00026096,"MEAN_MOTION_DDOT":0},{"OBJECT_NAME":"CZ-2C R\/B","OBJECT_ID":"2024-218A","EPOCH":"2026-03-09T22:16:31.791072","MEAN_MOTION":15.22960743,"ECCENTRICITY":0.00453409,"INCLINATION":97.5416,"RA_OF_ASC_NODE":83.973,"ARG_OF_PERICENTER":359.5317,"MEAN_ANOMALY":0.5869,"EPHEMERIS_TYPE":0,"CLASSIFICATION_TYPE":"U","NORAD_CAT_ID":62078,"ELEMENT_SET_NO":999,"REV_AT_EPOCH":7134,"BSTAR":0.00039378379,"MEAN_MOTION_DOT":9.445e-5,"MEAN_MOTION_DDOT":0}]
